idTop|idSub|countryCode|city|postCode|description|title|title_description
1|1000|PT|Lauriemouth|67275737|jptIgvOttt|uddlVP|Set designer
2|1001|TO|New Erica|32153761|VmvMvMzYICFfjvteMYzpfGKHJuFwLkoAfujKqwxiZc|oAbofxEpjarZPlkMo|Engineer, biomedical
3|1002|NO|North Anna|66152739|RswivKoILKFVwpGWbJpmJpBgm|aMJGDlWYnDntCpqBXrh|Learning mentor
4|1003|CR|North Jamesfurt|39239373|oraJGkOEZEnpJ|WIzKijsVdkOAKk|Land
5|1004|IT|North Cheryl|67956421|jLLdqbpiUaebiRNiKhUgTFJ|qN|Garment/textile technologist
6|1005|GQ|South Angelashire|61975235|iAOulFHHePLRzuGD|kYmnRgJEd|Chief Technology Officer
7|1006|AG|Adamsberg|18317255|eU|luhDri|Insurance account manager
8|1007|ML|New Andrew|67438448|jyNwFxEUtUNGIgOuCrYtjYvcbaFQymzHsiyGRMCIkB|PkCSfbPgrBqGFCgRwaY|Nurse, adult
9|1008|HR|South Amy|31614443|eAtIwNkiAaqrzmPyoLQzgcaoZSzV|pYVcVWIGJOkIeK|Freight forwarder
10|1009|MV|Port Robert|96594866|utRzJaEgUchkQDBwkkAtBBhBYCFtTzHGfQkZXoI|WchwNrgLmGGv|Ambulance person
11|1010|LV|Atkinsonton|72844371|ZsJwi|zRqHapDOzKzlPACvwzSb|Trade union research officer
12|1011|MH|North Tinamouth|61849491|mTUXYCcd|pw|Exercise physiologist
13|1012|GR|Ericaberg|53533924|LCvGEDxonOiqAEREE|WNO|Fashion designer
14|1013|NP|Annaton|21521878|t|WmNYQYngdclh|Pilot, airline
15|1014|AF|New Sarahfurt|65764717|wymk|BskSEXMmk|Scientist, audiological
16|1015|SR|Andrewfort|58988469|lfXHYhtzqfcyGocWJGYrrMGTZQrPZzePeDwnx|RVTR|Holiday representative
17|1016|SC|Silvaview|83127447|cDUEShrGGhNtcxYCiehTCicNXobWWmmLlGJo|RdVJKXX|Personnel officer
18|1017|AL|Port Cliffordton|57637634|QqcFBEHwXAkZnFXyYUZdfJUwdJloJVXLwwpt|kzGjGMi|Pharmacist, hospital
19|1018|ES|North Charlestown|55172869|kFnYzGVNZJRC|KRHLdCOKJKvcCt|Engineer, petroleum
20|1019|DE|New Jillfurt|16415439|yWZYmiyc|URNemqSEpqehRo|Designer, exhibition/display
21|1020|RU|New Nathan|87715737|QSotlifnVFNCyddepo|oAfVOnwlTscVBAhQupb|Land
22|1021|KP|Port Destiny|17666142|KogmOetChnsPyllUujxnTdSbwMRsSEHR|oI|Engineer, production
23|1022|DO|Laurashire|24146926|KTcnlOPThgKPcXXd|GntlIYqvlXCWyrk|Chief Strategy Officer
24|1023|UG|Eddieborough|49827412|orRMqetOa|iqRxSnMGLYYOIV|Surveyor, building control
25|1024|LR|Smithshire|14736541|GSfyqaKYWTnUTvdfM|szseXHqe|Tree surgeon
26|1025|AL|Lake Zacharytown|68633675|IPGoLaAIxvcpvaSqRJArMUl|QWsXDkyxvIOWNjElYG|Advice worker
27|1026|ZW|Dianaport|99878478|mkUuIDBinwRNcyW|kMASRVnMCpHsCv|Tourist information centre manager
28|1027|ER|West Jennifer|15958591|sPFmYXzUoyqjbbUrrxtKromWNhltqycYDjAqOIcSImRwarGzd|cUpGLspBQdzUg|Structural engineer
29|1028|GR|North Rhonda|54236525|jqvKMDCyKIrkZjCqHgMuHGlgxNseqtWtvFafjPXFYWrUtM|vrxwwUkdrpEyYIcnvgJS|Ambulance person
30|1029|KG|Taylorstad|44452949|SelDBPDCxUAIcNBAsXIlclRLnvEzvCUSJlNyrgVJCFYUbMs|m|Contractor
31|1030|LI|Lake Lorrainefort|74495145|KXndzahqgIMDyxha|XJzj|Press photographer
32|1031|TV|Angelchester|88185242|OqmJlVkToiBqjQcIhXvvVQGbRsMKIRr|WkLicsfZrJTsFgxcbgW|Journalist, broadcasting
33|1032|MV|Andersonport|74274696|JUGklbcwrKsBEnz|GIqpSMhjioEj|Data scientist
34|1033|AU|Tammychester|87418912|kzjvKTlhrOUfb|ePFHCLEhdBeZQgMXnvG|Bookseller
35|1034|US|Georgebury|31475954|JYkRdCvkSA|rlOlDeXPOHgXvSDo|Dietitian
36|1035|NR|Codyview|72715993|ZtSuNVQNDwHECfzFghxCRFsXmkIyazy|nbnsXhznAQ|Energy manager
37|1036|ER|South Maryberg|49935162|CHWfcgrIfqOeavFNCBkTlQnlYfyyVaTtqtmiCZMbXzcEAyVec|wildEgvmpyvJBDOvZE|Print production planner
38|1037|ST|South Melindaton|83472333|zXELtVHZdkbgyFMzcZJGKkRelqbnudFp|VBZpTwDzN|Nurse, learning disability
39|1038|IL|Hawkinsfort|29894118|WEKPVkXrjCUUsehvtdxUYGKSioDEpjUAunXMl|EtkahXYMFnKdYCnIwbzl|Biochemist, clinical
40|1039|TM|Shelbyfort|98126324|jPPKFnWQYmqThKbcDe|uHfL|Architect
41|1040|VN|Cameronville|28427247|ALdtZyHkGVUmcCYDgxQEh|OJwUvB|Tax adviser
42|1041|NZ|New Timothybury|85367893|QMcacYlnjfRrbeOBYXt|YVNHvNdUpXURiCB|Air traffic controller
43|1042|EG|Smithmouth|78471326|yKYLkGDvNaHpwofRdSDensICZaUuOV|qwrnjxNESzxx|Trading standards officer
44|1043|SD|Lake Robert|19352178|bNFZDiMDjWcjUYNSFpPgbYOmUuGrPWWaxmxYFUuwkwIQljrs|uRXKMTelMyGg|Engineer, communications
45|1044|WS|Brooksborough|54838177|pANOOkwhTUBiBwVTrsYbQgJLbdHYJXVqDxnseFGNZlt|KKkFuzPBN|Medical physicist
46|1045|LK|Kellystad|18468321|gRdserXtkXrUcMYGNtClXlIjvmtHbvZSBDIiH|Ts|Glass blower/designer
47|1046|IE|West Carolville|47272465|uZbTymaEbPgzlKjywiGSAMianRwRVAmdS|JSKKYbILjPTtYaOca|Special effects artist
48|1047|PT|Westport|87266868|WsiCNKXCviJfaDJPiKs|hI|Surveyor, planning and development
49|1048|PH|Port Julieshire|53589677|vnouFowvQQUsAFSlEltkGlgHFhdewwuzyOqC|YXKeMBPhWjLXVoYZ|Careers adviser
50|1049|KE|Jonesville|76836536|iLGWuIQHKEsoSyLkrpggmlmajBWBpEHFDT|ZTBjrIirFxh|Air cabin crew
51|1050|MG|Katherineburgh|43631813|qBzubMwBbIficDesx|zeMzGBpckPUPsFXv|Teaching laboratory technician
52|1051|CA|North Amyborough|14512892|KaskTHYZZwrcbbesUqPFkwSLZa|RUrVfYpVrZStt|Surveyor, hydrographic
53|1052|KM|North Traci|51122631|vJgPj|JyEFfFTXjSYztIGe|Social research officer, government
54|1053|YE|South Nancyshire|93513382|vIxtzwjaIpohDCkcrraMGcZc|DAYytOq|Building services engineer
55|1054|NA|West Barbaraberg|92846315|oQneMKOYgisuFrYAv|rjLrOaaNLfnDBx|Herbalist
56|1055|PY|Elliotttown|96272353|WCnYwfvP|nd|Accommodation manager
57|1056|SG|Perryberg|98817975|GrGOsBwzdrnaeaTPVUkPdRlWvUmsuRzConQXe|TdCYSohBRG|Copy
58|1057|KN|South Markburgh|86115919|mXrLgaPfKwjbOBdJrmnlN|ChDgVRUNj|Newspaper journalist
59|1058|SO|North Michelle|47167881|rQmW|CbmPDRTHFPii|Recycling officer
60|1059|IS|Kristinamouth|65957495|oenapBH|GV|Media buyer
61|1060|SL|New Kimberly|58675547|ulnEPIGWOKxXAolrsGkuTqc|uSgOaYbWSCdqHIPG|Rural practice surveyor
62|1061|BW|South Michael|43781747|LAVvPUqDcycygeWnIYSNXrGfDcxKYDwJefwspXeZkKbtJ|aEUhtGjEw|Stage manager
63|1062|BJ|North Ashleyberg|58792554|qCxUpkoxgbjsuWRnKkgKlQognTIdeyctBsaExAlBhfAu|PxrDMkVZVDskNjBkGQeZ|Scientist, forensic
64|1063|VE|Port Michele|37969398|NbGaNIJpeCFvLGWkaPEItVYaPvYvOHAbNeOfPrOlOKw|rQyghbKQF|Runner, broadcasting/film/video
65|1064|FR|Jacksonview|31241356|jtTowNghOVvpKkYvdqjpfUEWVT|pALHr|Therapist, speech and language
66|1065|RW|Port Samuelshire|92296116|qbygvFnqeypYplEfnrxXrpJyxDUIsUouimfNY|dUCp|Merchandiser, retail
67|1066|BY|Allenmouth|61876162|bdtWCRjpKZrYDy|SNdas|Forest/woodland manager
68|1067|CL|Tamaraberg|17783956|CWsYAj|dBlzADX|Pharmacist, hospital
69|1068|ZM|New Laurie|97194686|nNWhPWfUQIOElNFPH|XzWPdKbiscQl|Ecologist
70|1069|MN|Port Amber|77574644|pKwhaHcbCPeWqLhUgljbSHulaqkXtqigVaUHjPjkJlEhxxY|IMXcEkQnZdZLgtsj|Management consultant
71|1070|BS|Lake Robertberg|48878344|FgEYUX|FwcWMcpTlIPNtZzwqag|Chiropractor
72|1071|SV|Peterborough|89317699|BbyqRoDH|EF|Art therapist
73|1072|SV|Rodriguezburgh|91523961|nyOeUvXcuBBaPYLTCEJqtLCTHfmLD|oHFG|Economist
74|1073|PK|Martinezhaven|31151311|NSXGDeAMKqeAvwiIOQIpaRExeUsOZzrdXnRtAZx|Nl|Medical physicist
75|1074|SY|West Wendy|73196187|PWsRzaDoaViPTBvTcjCdJJuaJcmYeJ|dAEnazVQkJZqnhREAdnH|Financial risk analyst
76|1075|PW|Richardfort|35885893|uWjk|lGPQUJYkKXtglAdcAkLQ|Medical secretary
77|1076|LY|Powellmouth|68992783|CErAeKgzOubUaZYKNPLnFp|qcDdUqoAhd|Ambulance person
78|1077|LI|Sullivanburgh|65321411|csrJneGQswqMwutehmSUfhGhCvYpdsZTeZKhDISrKVGUdk|sFDQ|Engineer, production
79|1078|GY|Natashastad|71441815|VCGtDtuniXmhnJiOKmQ|BTxTaZGxceySfEvgldG|Engineer, petroleum
80|1079|LU|South Lori|19948162|uKBOVRnadXUTbrBGDETBykxRViq|wgiVGlNEVQrmR|Doctor, general practice
81|1080|PG|East Larry|75976521|E|UbsINabRtFozVgyYICF|Financial manager
82|1081|TW|New Patrickfurt|38396676|szddQSDYUFhfYZju|QrUgXqkAu|Architect
83|1082|CF|East Angelaland|21233546|EyxnquzmIePjAUxcU|yKUNAppN|Theatre stage manager
84|1083|AE|South Jeffrey|41873128|eAV|ApxTnN|Theme park manager
85|1084|LR|Angelville|54254522|iPmVqLuejuPIgHzVgeXlgJSNwPxPExip|VkCoOHwdUPMZ|Museum/gallery conservator
86|1085|ST|Lake Allisonmouth|12417949|eZymiUFtznwwgQkteAwBKEVtLH|qnsQkDGEzmAus|IT sales professional
87|1086|DJ|Lake Cherylburgh|82984593|MSjbcDsrISIigMahUYyuOJImdZoab|mWuKrRPav|Surveyor, planning and development
88|1087|AM|Port David|83744527|acGMUcUXwtqOrgpmyRyxjdTnKxQhRKWeaCdnxmE|NKiVRyyaBqiITtCKrX|Education officer, community
89|1088|TR|Kathleenland|29128242|tsfWH|TdqdIrInWQmkzQn|Television camera operator
90|1089|QA|North Scotttown|27443561|jbZfjTjyETRWRlRatIxSFVnOCsWsgChbR|BBfwHhCZ|Embryologist, clinical
91|1090|BW|Harveyland|79987299|InfRYitkROpYtvIajHIwiIIlurHTIKNbQmWPlspJZDUATd|olMqhhjbYp|Air traffic controller
92|1091|KI|Alexanderborough|91563184|LnMKEPxRegXWXHMjghawBOKKmjYWrFZRVI|LyPUUiCAOHBiEGr|Advertising account executive
93|1092|CR|Holdenmouth|33151787|ETzBhlynROXvshyBKfVHibqPc|YBhkyrdiFAMTVBkUVYH|Firefighter
94|1093|BI|Lake Jennifer|32841319|wfDIiUzIavyPPVsVEVrPKXnLOC|eDXa|Field trials officer
95|1094|MX|Danielshire|45674917|DMkgmyyOOKZERSSsbWpfRjnSjm|gLFt|Museum/gallery exhibitions officer
96|1095|KR|East Tiffany|43168498|rtFQiUIPrqmplIitvrwvKYZPjahvONoLFBtLjju|uLAL|Chartered certified accountant
97|1096|NZ|East Ashley|26311494|WCPrDuUeSfpyFdDKlwAuOIsuPBTeXFnYi|OI|Clinical psychologist
98|1097|SG|Alexanderside|36818366|kKxCYhDrMKMayVvlwfxaorDqstNeYtcLDqQjPGZ|xPgnhMpYngsrfSjZCTBt|Engineer, technical sales
99|1098|BJ|Port Sandra|71418846|rEywxUXlgEEcwO|nBgfWhJUmnXLvlTo|Technical sales engineer
100|1099|NP|New Victoria|72718874|aHyUcFKPvTGGUgpWfkZvlfCxu|WyD|Sales professional, IT
101|1100|AD|Hintonview|24598447|xqtTSTXoIQvdppBfEpWDmWGJaMWFegXA|KAsqB|Occupational psychologist
102|1101|KG|Reevesview|42669987|XrsVPcyuDQUOuNvjtJtsxfRltwkjElAXgELiXmvpElbCoTnV|hRFJAoGgKPFAUNUFMRr|Community pharmacist
103|1102|AU|Murphymouth|96697749|REbQaKGWwbgSXSLZeyrhvGPBRvjLuZPnJDvtcRhiPjhpYdKZyQ|IHVLGWWncxx|Public relations officer
104|1103|BY|Wrightside|71793398|UbJZqGNIANXcpYzVEjdCItOlwjbRkBnt|i|Bookseller
105|1104|ML|Joshuaside|96944351|iyqKiPwBNkKoWhjmpkbrMz|PxS|Mental health nurse
106|1105|NO|Lisaberg|38869687|MpmjXuY|EFEe|Merchandiser, retail
107|1106|KZ|West Keithville|82797965|AQiorGTzq|vNyCU|Teacher, special educational needs
108|1107|GD|Lisaburgh|45835126|JKfx|l|Programmer, multimedia
109|1108|ID|Port Jeffreybury|35387953|anZieUVhXATWBMNvVYAdHtkwIPreRKhREJfKn|HxXuQLbBRLekhXtyE|Journalist, magazine
110|1109|MW|Clineland|65427456|pfoZNOBaiLxtGNaDmKtqUgBEHflsb|SIb|Therapist, speech and language
111|1110|BE|Port Amandachester|57513631|MCVrwtuv|zWOZLYzW|Veterinary surgeon
112|1111|GW|Rachelberg|53354953|qwpnYIonBPNGDSnhqxMaDhFEZOxyHIHPNeofxfIQSh|CuMjkxXrRUTdrSLNSexj|Administrator
113|1112|SG|Rhondahaven|92432798|HrPiThHbVgtIOagJdZkyhQJoP|sZUGjMjHjSGRgex|Conference centre manager
114|1113|AF|East Mariahaven|68621553|ToGnmSJedjlvaUaThONtvXPxRiiWIeftBStSJuBKjQ|RLRAZVDAEXswxItXG|Speech and language therapist
115|1114|BT|Schultzburgh|78389282|jWdHShmkiWa|PQOBvqXBHBTheYjJRriM|Legal executive
116|1115|MV|Port Christinechester|38395896|VehWBNmdRAdVFEXsPGUYDGbryzfasdJDpeLtZmi|VOymrpBKZt|Claims inspector/assessor
117|1116|SG|North Roger|51133785|WnnZXd|popgkCbqfjGfNAdlugS|IT trainer
118|1117|IT|Lisabury|96487458|ZmYSfsLNPHGgXJDkVlmUWG|aQDrIzChVTQpVbtUUL|Editor, magazine features
119|1118|PL|South Beth|97375954|ednNzICZFnvZGzUKTtSNTAxdEJkHtPRqmMrJIsWOEWABUA|HQZgcfkExfpqJVDNiaC|Administrator, charities/voluntary organisations
120|1119|SD|Powellbury|87733939|sTAdnawXLlJQAJyFBJXtbbVGWbjbgnwmOSqJ|LYKequVuZYVUxlgTpSB|Geographical information systems officer
121|1120|NI|Cookmouth|75529678|RygmvkE|OfOslXcIMVpokW|Producer, television/film/video
122|1121|IS|Mathisbury|59265758|lXLCzntYhNjv|VTe|Designer, interior/spatial
123|1122|DO|West David|11767648|qmSEmNTwPdABpRLFgrJSTMOf|eE|Corporate investment banker
124|1123|ZW|East Philipshire|52286957|VoYfQuErqXbxeBJXJyXSZnhJgGU|FbzIFtKwpLEcXpbR|Occupational hygienist
125|1124|NA|Thomasmouth|83698238|GjxUFadUEseMjRwTKMth|fNefoiBoYwKSWfkFt|Occupational therapist
126|1125|KR|Robertshire|11271265|UFYTcBhUeaEywXAgN|ZnECzvaRspsjrJWt|Geophysical data processor
127|1126|NA|Lake Sandraport|47586593|xfD|SEUmsJhRMoyMsPQuncYL|Surveyor, building
128|1127|TG|Riveratown|74445633|FDsdAdVwiKvpzIEBTDGULBCCWMqWurzqh|WyHhpLbldoDN|Telecommunications researcher
129|1128|TM|South Tonystad|92875282|NZsBWHOWofYQLgJPEtokArAsWRj|KNLKhIwRwkm|Civil Service fast streamer
130|1129|SG|Johnberg|78244875|FkUSOhadVwgZHOrclLFzlCwzdsGdDNh|IyQrSpQkSNOuAmQi|Office manager
131|1130|BF|Christopherchester|92185213|aEYAhICoRGxRRsiqGxXGcsbLOOdRBF|QtaffpVkKUYRahZoxut|Therapist, horticultural
132|1131|AR|Aaronstad|78126624|dp|PkPRCqcBlkB|Hydrogeologist
133|1132|GW|Thomastown|55952573|mEXrQLDEsPWoaMYDIQ|XBAGlulqPGwL|Operations geologist
134|1133|NA|Port Shirley|53838881|BExOHQa|WJbjQuscMUcSCydu|Equality and diversity officer
135|1134|LI|Port Alfred|88389558|vhLk|f|Medical technical officer
136|1135|FJ|South Lynnville|65565193|AWBXfNRvNiTUXRTl|QuVfnJMmQWzYH|Clothing/textile technologist
137|1136|AR|West Todd|66923259|ApKsIDKyMYIVSrISoDO|nlJepuKpmSpkPKIHfS|Psychologist, clinical
138|1137|KR|South Gregoryberg|84574131|KlgfPnfyEiCSdttAtRZbLZVZyGbuTseUy|WCkOamtYQqqOus|Television camera operator
139|1138|GM|West Diane|73566382|VbaOluTbVSDvQ|dDhDiW|Soil scientist
140|1139|NA|North Mike|67278317|JPkgmPSQXZBzlbzGQklgyBCQm|LIGvIYOdkCvhvLMRn|Editor, commissioning
141|1140|MY|Christineburgh|76496334|BsnNNJZMsciVdFWLhETeTCmArtGKGteEcdLqWOfOzjxVv|OhWXjUkdAZe|Chief Financial Officer
142|1141|SR|Erikaview|21924354|FxvbbzerRHRWYfxfVJdJF|JiqSR|Technical author
143|1142|SK|West Jacqueline|91858284|sGfubEBKuErgvdokuLOoGNjAMislwYkzih|sqXKJKUseERTMHISu|Journalist, magazine
144|1143|MM|Lake Michaeltown|98449567|nwNSsxlpcyTuasPjhTTSRxoblDcPMUivmYFfph|wN|Mental health nurse
145|1144|HU|East Michelle|92715156|NGbMebyqR|IhhjGPOaLPhZzHEsS|Tax inspector
146|1145|LS|New Jonfort|83345618|IrUoUvVbAoEzxduQYabVKjUCK|iUlFVrcNebJJS|Administrator
147|1146|SZ|New Taraville|83393578|RmaXCXopzLQDFkAtvBiqyortp|fIFAioyXDWnBaieUz|Mechanical engineer
148|1147|BJ|Abigailchester|47577566|aBHaHXcnjjUOqlQkb|vhXxPcYAwzlPadRgMGs|International aid/development worker
149|1148|SD|Devinfurt|44469983|lxZrOpSwaLcnlWcgtMPzuQxKXRtCLEELVaiUUbrpwpP|vBOMKREYFrQZPiKfl|Theatre director
150|1149|DO|Port Jason|26297729|fyhvFqpcikKepGMzLKHuvDvxLXmffkDEIuTFsmgTgvvn|cOCTRTNrR|Personnel officer
151|1150|PY|Johnhaven|63132931|L|gfYHFgwId|Radiographer, diagnostic
152|1151|RO|South Jacquelinebury|74331923|ytwIycyYMpVvJlSqyEEKjvdJbSOBynFxMxjJjbfpPlf|HlGNaJ|Administrator, Civil Service
153|1152|DM|New Claudia|42248637|SoHzNypUtqiJtsRIWEwPdbsFtKVsPBgkFgmkmtZqcHRjVpY|ZlGlLiAPbmibhr|Magazine journalist
154|1153|CR|Kelleystad|47818699|IFQLbhgxfTjfuybjUKMMWiYBwvbEBSfgoTVcavABvLwHcRsSJ|UTrOpIQyuonJ|Legal secretary
155|1154|AM|North Monicaburgh|99896675|dfmoMsblHTgdKYz|adoMtHcOEZBIJ|Production manager
156|1155|JM|West Denise|15871932|nYotohBsDeTxEBrAIIo|h|Landscape architect
157|1156|TL|Sethside|94324421|SZxdVywmMmGqFWrTttSXrbRqsGVMgJmlpqRenczJQJNFVAtUgA|LjIFOtAYkYRuc|Patent attorney
158|1157|CM|East Kayla|77453349|dcMjzmyiufDaPVAKDOHzendGzEGqFcAbPhV|AfHgTERI|Tourism officer
159|1158|TH|West Carla|62778394|nzCHEHqSbtYZxWowtztKHReGvsnFLojMvmFKvYHTrEJe|fdrwuSCqSGDjeKReX|Surgeon
160|1159|PE|North Tyler|21716353|KBmyiOktldySzKUEKUEmYl|vtbxuXdVSxMZxoV|Art gallery manager
161|1160|UG|North Amyburgh|73636458|xgTNNKpeaTzRwwfzsDzYbhpszuQEwMJt|OjDiaaSgBDMHwCOUsBIy|Furniture conservator/restorer
162|1161|NI|South Jamesville|34337474|mJCEQ|eDujd|Plant breeder/geneticist
163|1162|BT|Campbellburgh|11926495|GfoMMVBtmGkmAqKxTRIXQNmoE|UAxEsxzNVq|Administrator
164|1163|BE|Mollyville|62474315|XIpyuTriYfpnvvgIAWzqyQGcUlCTHXqYfpxNYPgtXrDkY|ucJ|Retail manager
165|1164|BH|Sheilashire|87463668|JtWeVYU|JTEDjxYfxrfMxSq|Administrator
166|1165|TZ|North Michael|38962882|ArPzDAHbcWjDqBM|lenqDrAgAPhtSz|Lobbyist
167|1166|PY|New Jennifer|41162157|aNV|kfebIpoJ|Location manager
168|1167|CZ|East Rachelton|67176511|QzkXDeSUSPuVMEzSnImm|IFHpNFzXLPxPc|Conference centre manager
169|1168|SV|New Amybury|23833439|isLtlDhOnNACjLBCMYlgFCESgZGaCrDGmSPmRKVYBdGRpGfz|yUhzJUVWcPOQH|Chief Executive Officer
170|1169|AE|Warnermouth|51262471|TFTRnkVbcClnWLyhTYUCUDKsnRTghAkYJrXoTiwkyqb|WvPais|Chartered certified accountant
171|1170|DM|South Jeffreyport|47184444|TDUYRAcRynxORadbWmXrYXFTVGJHkHvXOhig|YZye|Professor Emeritus
172|1171|ZM|Tannerchester|28694851|WyiiFaMl|hpzQocVUFRPcA|Clinical embryologist
173|1172|SN|South Daniel|36449198|O|bXEZ|Freight forwarder
174|1173|LR|Conradchester|84266347|cgmnXfjXmolKBYyRhkXfHFHvkLjtWczXhQFgWxBKGlWXYY|dHRcXS|Surveyor, rural practice
175|1174|SE|Port Bradleybury|49522679|ENmNtSaPCNqxrFjSoTxbwcToSmsliJxluUoC|xrDhUrXX|Translator
176|1175|OM|West Chrismouth|59422392|DojrHxKhYCPayKKgWkTHDYsGbOagsXPz|fRoABiLmxUTJSh|Human resources officer
177|1176|CR|North Michaelport|49968468|qBSNoLDbgahTtUbVXRrUOleTgESRWFdcGQkHvCbzUBQvSdoWe|Ku|Counsellor
178|1177|UZ|Wattsborough|63896944|CQldHCtP|oHavomyhu|Doctor, general practice
179|1178|IR|South Wesley|58331976|aNQxNZLQEDBXJFzJcIWUtZyYasgrJIYaYGJqWnqJ|WY|Therapist, nutritional
180|1179|PG|East Stephanie|15416736|ZxuFukuLbAttDlRHcbulhJqWBaJRoBBgwUOcpTJnwL|HmPuWmktKxOxp|Audiological scientist
181|1180|GE|South Christopher|97285952|rAompZVitmzuuHkKKBKpx|NeQjRohRSYitZ|Operational investment banker
182|1181|DE|North Vanessa|21987531|pfxSwJrOmXXbSJUPiPYLslXm|pfkrNu|Financial risk analyst
183|1182|VC|West Patriciahaven|49758692|TDfbeUxtGgyjzptRWDoZTPyGNQxOqnUenASYIclRIdPILuL|lDfortCPGWaMQFHhfBsI|Software engineer
184|1183|AO|Floresstad|15121278|UbQyirtXqTLnDwwjMEgkuyUzsSNHNDCJduTXCVRioLSE|gUhsol|Presenter, broadcasting
185|1184|BY|Beckmouth|38274356|UsVUH|efBqcmh|Designer, jewellery
186|1185|DK|Markmouth|34576426|DBDhPWbxcOgEmPtkyEntOSrsekF|GmXpUjjgWmadmH|Armed forces logistics/support/administrative officer
187|1186|BI|Lake Autumnchester|22494897|saqYAl|in|Magazine journalist
188|1187|ET|North Veronicafurt|35489854|CZjkHyRBCUTjVzQZXoKICQUALmCWdCCeKeVVSGrKhlpbtxW|vFQNoAtwgCJSltBE|Operational researcher
189|1188|CI|North Gregoryborough|95583254|BNBMQJwumKdagiPmQmrqtdheRPWxjSGShs|pqqf|Ceramics designer
190|1189|TT|Chenland|35327558|pegLFgSslvWdGOSjSyvJjH|Py|Education officer, museum
191|1190|QA|Hallfurt|68891475|QUMoeMxVnOzErUSVAsZZ|mcOuOzkUclDgpQLhzE|Chief Executive Officer
192|1191|VU|Port Andrew|49928671|WMeyNIr|PuGZpuVgPeeLIbLl|Set designer
193|1192|BH|Port Jenniferland|36886518|XQIpnONrZwathJmSLzcIjgAgTizmbFBJntfjRwigCzdEYL|wlCHSUsjnfY|Engineer, maintenance (IT)
194|1193|JO|Christianland|76255135|ELdiBYPkXTnzbBhgrIUQucLpj|fdCvx|Administrator, Civil Service
195|1194|AT|Bradmouth|69675246|qCpUvZeSsSYROkHMIilfPOScjeJFQugn|EFaPdLzdayfLVUkr|Pension scheme manager
196|1195|LA|New Amberberg|41182282|qjQFHhaouusXRFBybKeO|PLovohN|Commercial/residential surveyor
197|1196|TR|Melissastad|84788396|gaSXnilYFVGqBSkWcLsfcKmyJKbWLZWmSIRtPPlIcvemXuC|KnMXRRVCCJL|Forensic scientist
198|1197|KN|Racheltown|62318414|ukQWU|FxzsoiChQdrNMCqW|Claims inspector/assessor
199|1198|BO|West Garychester|59313637|WZlvlxvMVTyuOPCeXBjhCCxZrh|pCsKd|Advertising copywriter
200|1199|GR|New Billy|84398559|KzKXsFEpTvbAzpXHMqpYKlrCcECatOc|xjaYwzTx|Chartered management accountant
201|1200|GE|Jackside|58278978|jlzPLSRMTNIrei|IRgwlBsIb|Commissioning editor
202|1201|SY|Crawfordshire|14919953|bTJmlrxTekPnFAlrvEGLXNSYJfWIiiUteRZcEKWMsqEsFxmd|xoEfQBCAZfGAhvRqWsa|IT technical support officer
203|1202|SD|South Christopherchester|16681934|lxNZKiVJDcIKDttRkfBZITLtaMauVsB|jqbiux|Product manager
204|1203|NO|Port Alexander|55131711|N|vieiG|Sports administrator
205|1204|TM|Tammyland|94913641|aGo|XOkL|Chartered certified accountant
206|1205|SE|Jamesshire|61615814|EPJEUqVAgapqzzLDvBP|ahTAZz|Pharmacist, community
207|1206|IN|North Holly|99446197|JOSFlOBcMggBiVQFOzAOdImgpMjChxkzEcNUE|OvIErwqB|Tax inspector
208|1207|BW|Bradyton|99469289|TFn|WvKknpHsLBshuzlBS|Sports development officer
209|1208|TW|Kevinchester|42784888|fQEvFAsWwfIDAVvsrqGMLOPTCvGWkwONSKFWIeQZTCqAP|RUoVfngHZWrzkwYByRdM|Chartered loss adjuster
210|1209|MK|Lake Angela|31315787|tGOHVgMoVHncdoyKHQUGoCbqKdhwGtCYBKQKtln|Ynntr|Air broker
211|1210|GB|Oliviaview|49438518|FVonBreLPbsZRaLBcqtzDOoU|WenGhAatGReUsac|Customer service manager
212|1211|GR|Shaneshire|62388958|orZGLZOAQEPEzokWURLLqOXvnLOtWMHNhPVbfVVpZJ|mCMbxfFcw|Actor
213|1212|VU|New Monica|75468381|TkzecFnwqkX|KaswGlggglLHO|Charity officer
214|1213|TJ|Jimmyfort|15548837|jiGIlKGkGRBQsKoYQTwcjkogVGMvY|vRPDaPNsMQqdI|Accommodation manager
215|1214|GD|East Lindsey|13414246|lyQSlXneZelNJdmTxobJsMloBRXBOmqfBJEOomWeLhU|r|Retail manager
216|1215|SG|New Todd|31181639|kkpMyXaLUyNJBqRdvOy|sTLT|Private music teacher
217|1216|MV|Kingside|17824155|HSuy|WzsOVDgqpaqaWflgbP|Proofreader
218|1217|PK|Jacksonburgh|33557725|xMEdrdfAqmXwkaylJBn|BpSeAdKTtXqdifogq|Designer, graphic
219|1218|YE|West Stephenton|95626684|nPsCaMvcSvPDMThSdDjNuSgJwNfDFBEAieZCbYxwscIu|GggQZZYGakYGrfEwbTBA|Charity fundraiser
220|1219|CI|North Sarah|76453565|jEnirwQUtgXdOKTbtabCFusOXCXbSUTrEPKWfPRGwhn|tpUVLawkFgfGrRBQ|Designer, jewellery
221|1220|KH|Jonesview|77134685|VzICBexSoxGLancwIgqwGUcqhISnqqdtQuvjydITxIxntSgdzF|GVCya|Pathologist
222|1221|IL|New Victoriaside|79188976|OHTHvPEoIN|dJF|Theme park manager
223|1222|IN|Geoffreytown|89514968|DhxPMOHEt|lexTzMExxeWnUs|Scientist, physiological
224|1223|KG|Lake Caseymouth|53876235|Iiw|gfBLlGNdqPo|Secretary/administrator
225|1224|DM|South David|96794856|KMOmFxOqxReIQLPLOROAwGmoRUzioQArvemcfkuflE|JqH|Visual merchandiser
226|1225|KH|East Julie|94694631|JtIlpaqCYp|uI|Media buyer
227|1226|UA|West Nicolestad|45665974|nTiuAxKJdevOxhDVJXZuQevyMWqdcfPFwocgbbPXUFV|v|Manufacturing systems engineer
228|1227|IQ|Port Stephanie|21239686|TdhiEsa|ZuywtianAU|Freight forwarder
229|1228|MA|Lake Ericaside|77155899|tDNczvPJwDZhnlEUmSt|TjBsQlehwv|Production assistant, television
230|1229|SV|Campbellburgh|78469296|UQnlGhweDQMEaewAqGFYXpCkfChYqJLzJFMufAoFsR|zYWiImgTRFOIyJWC|Hospital doctor
231|1230|BB|Jamesmouth|87298453|XUtEfrCxTloVWOrBXVDsFkbikZwNjRCjyTwoNDFi|TzLrhvgvCyAOYVy|Pharmacist, community
232|1231|CD|Bradystad|23482692|bSIPfblC|czwDVdlXaRRroVjSAW|Development worker, community
233|1232|SO|Hartmouth|29921215|jhpTuqquDemKSztwiQttvyG|jOnYaDqfnb|Occupational hygienist
234|1233|NG|North Kevin|53426979|IquWVPRLbuPvbL|lIEiwmuUl|Textile designer
235|1234|PH|Hernandezberg|25319334|VOmTzTfAJHNFQpTXHmDUpfjdwcFNN|kxtqngBDJfcEtMy|Embryologist, clinical
236|1235|TT|East Markton|88857497|JQKdzgUewtwfkJfeGCfYihwSXzPvNPhEHWLgWXXnaRS|jtRsvacTLsyHKrwOG|Administrator
237|1236|MA|Terrellview|65287797|gqlKBHCDOLgGNJVPPYkfCxexbFLdbTVpRskat|ShgfCcWIY|Public librarian
238|1237|GW|West Kelly|77645492|xxAiOGrmATOPMoaGFyoImxBNNaHPSbn|HZa|Conference centre manager
239|1238|HT|Lake Joseph|76755334|suHIGRVFw|ZqmXstglKqrzrFhfmD|Social worker
240|1239|GB|Khanland|29391547|ASxlEGTUtxQMwPPRZHMFLGgfXMABsVqajDhGHMDgSsvAZtYY|tnKjh|Scientist, research (medical)
241|1240|GW|South Rogerfurt|87696395|qKkVjBgHgLqEdURKFQWYGHynYWkElzkuD|SNtR|Designer, blown glass/stained glass
242|1241|CR|Angelahaven|43135834|UWPgVxxKXAepyqWosPwgUzNQZ|JtEOeT|Optometrist
243|1242|FI|Lake Thomas|42579344|yIaNOUKkiLKKiXcpLQdsbWMZXPmAFRyGMTQnhcUAPAKjUTAS|cvWRri|Textile designer
244|1243|AU|North Shaneburgh|97153423|giNOYtcWCCCQtRsHKgLGugupQZXosijQLVPvgPxMkl|bkrNpvxwmjvlFboLog|Contractor
245|1244|LV|West Wandachester|82531249|EMFVfDmdpHSyfiCCDMgQYHhUJYrkZgUjtLsqWtE|wuRy|Oncologist
246|1245|GY|Careyborough|34489821|rBOEJnIc|UQRKKkYcUWbvTtPbxZ|Public house manager
247|1246|RO|Lake Vicki|34429263|SDIONJVvhrvfiTbzZtpjOaeFSZFzxIhV|sYOVoOgpIuKw|Recycling officer
248|1247|MH|Wardview|73158335|oVAwDxkYXUJrX|MJBnPBweEXgilwxFs|Nature conservation officer
249|1248|SR|South Ashleyland|74466814|wsNa|gOyXWptbXRRn|Environmental consultant
250|1249|KN|Port Crystalport|88497137|lrlMtwlecYYAwU|XMQxdLeWlXoJqN|Insurance underwriter
251|1250|GH|South Kaitlynside|92714312|qHeCdGqFTZRwxryEBbOkzPmLGYPRDUBHENdRvHRtQhTZyyzyc|WnxtIaQZgvmxULzYzY|Building control surveyor
252|1251|CM|Michaelborough|13152598|BiWgBdQQCxQjvxhswWkieNt|SupBuHyJk|Geographical information systems officer
253|1252|SR|North Stephanie|73143997|WxVhUGyQuczUGrPPdWEAkoxaUyJETxbgeimVRYjI|KpwJIOh|Theatre stage manager
254|1253|PW|West Jennifer|39483461|lyqvSQlasxw|pzydwJIDDc|Customer service manager
255|1254|SG|Simmonsstad|65789668|jNEGZkqxPZFSlOfPu|Zlq|Scientist, product/process development
256|1255|KH|Smithfurt|96681839|c|cLdi|Risk analyst
257|1256|IS|South John|66767432|fGaKoiGdJLhDJzpROKrBFDowdZYgxyhRDBlCqQPSzUYRVFFS|vfujmTBXbctudbHNg|Education officer, environmental
258|1257|EC|North David|72976627|OQoMF|cjxEwEBACpUJdwWcVJn|Research scientist (life sciences)
259|1258|SK|Owenchester|68359868|pLDWqtXhFLIyokWiKDGhcJeKyJtyDPMvBFrXkwDnNpr|KUvoqdVNLNuXZj|Accountant, chartered management
260|1259|UY|New Aprilton|92478127|vRHbZmLWKVBZCUrTVjsPXmlqqebWXbuk|PSJsvupgrORLs|Quantity surveyor
261|1260|SC|North Damonview|19424249|RJrJliXMKlfk|oDopPO|Designer, furniture
262|1261|FM|Meyerchester|14992121|RwcspPTjEDCqXxDsvbPPjKpJeohOKxCPhCTjGypaTKsxZSWsx|UlbRwH|Engineering geologist
263|1262|AT|Barkershire|21597552|jyFKgstAHySjPsbaHtHSavUmIeEKbwjzMktxZehqugDJAGIF|Xm|Hydrographic surveyor
264|1263|GM|Clintonberg|23631354|BDEdRxzjqHvzCl|mwdwoVG|Investment banker, corporate
265|1264|GM|West Connie|47471598|bdlSOBpFtVBxrT|MyekCaXVyLJdyBuKnsXg|Field seismologist
266|1265|GR|East Emilyfort|64862114|FuINwQfKtwcSPbVWCgauIXJgZUPboKPoOPhHTWbNUmGEWyCGiA|BJtZrrsnPIzrLeSkewN|Physiological scientist
267|1266|DM|Port Amber|98773981|ZSQLzhujXfBLiPScUVlQgRnTxgnDdueWHTuaexPxyguUxogY|iTzkzWQRbsNLgSTg|Restaurant manager, fast food
268|1267|PK|Jessicachester|26963284|hlGUmQTKcNfJnKsAofkJYMe|IHYHub|Sub
269|1268|KG|Stevenport|66538859|bsaDFKNAVVVHRcXWHJcHC|TnzKawCkxzadzn|Archaeologist
270|1269|AR|Hernandezbury|95165846|kGHHBYgONoxWWHvxUEB|VCjBP|Forensic psychologist
271|1270|KW|East Daniel|83397266|ZAawFqdoNnAzEYLlxEkkyMOiJFF|aJeIsCOEUF|Aid worker
272|1271|ZA|Whitneyshire|75531226|CRpIRRWTMiPNavQbuMejoYwJqhRJrqAhGYy|mBAYaDAIKxhir|General practice doctor
273|1272|CZ|New Georgeview|35448682|YWnsLAEIvhoqGzOtEvqigtWUylXHWUzWibrxqXuj|bYWZMX|Freight forwarder
274|1273|LR|East Autumn|72816223|UwrDpYVzoTZgIXGdrqoDwNIodBQSGMPtVvrdfx|ulXpIaMdkG|TEFL teacher
275|1274|KR|Jeffreyside|39153799|idWGFgWRenYsOcoXtWFxUqMINQlKVpNcNgnIsRWONt|pytboKSKhUrzfr|Surveyor, building
276|1275|SI|Lake Jenniferburgh|94921232|mN|RssFwYZVYyGffDMkYJyo|Counselling psychologist
277|1276|BR|New Kevinmouth|39558492|QHUROywAPiOSjIwggqU|t|Education officer, community
278|1277|GN|Richardsonton|55964567|lWrLxYUtnnZJylnYjts|CoYycKSNCbxOehRvuQS|Horticulturist, amenity
279|1278|KP|Port Maria|38493653|IUZpvcnZCEqakRqxsrEAMNze|IXCn|Travel agency manager
280|1279|UZ|Christopherberg|55696526|zyEUbGJuuuDrvRyflLlgngnAb|krTer|Research scientist (maths)
281|1280|TW|East Stephenfort|69473198|QkZTOIroSwEPGSyZiMpsFYVNwiLXcspkJOtuELcV|xwctkPmWotCaR|Government social research officer
282|1281|VU|Ashleyshire|22146872|WLRJuBJcdFNThXVgnQnFDWXYS|LZHFXDQdr|Media planner
283|1282|UZ|Annmouth|15781834|GcvDblCORbO|lHZ|Pharmacist, hospital
284|1283|AD|Crystalshire|92244346|DNuXbVgXwJiQBrdarPGerQxQNXRfPoyrWhrW|tIOqXVJiqY|Lobbyist
285|1284|NI|Feliciachester|42338574|HAotPozjQImbMvZNMadNvNXauiibdA|RltowrMlBHRzJNK|Recycling officer
286|1285|CZ|Meganbury|64979849|UlUHXhnMmCcaqHGGLoAbSsKcTEmfdaqLExNXP|OYHlNPXkPLjGKENeNuI|Tax adviser
287|1286|BR|Sheltonside|82438222|AmBCpHLMyALbbuhqNnUyn|BZRowVeBejnrK|Embryologist, clinical
288|1287|HU|South Lauraborough|87381284|HJwQqcHNDZAqALeQNsKlTcXIwFJuWx|cuOYOeEGkwp|Furniture designer
289|1288|MT|West Christina|86668334|UWaAieFOAjL|s|Building control surveyor
290|1289|MW|South Charles|95853791|S|ZDXEvfmhtYznpz|Trading standards officer
291|1290|FJ|Madisonfurt|15738961|ovLNUSpVjcmdLDmiPMIGJyRiym|smdGZeQD|Curator
292|1291|CY|Dawntown|22856387|JmRCZEFSvieenywjKshVRAbbRIuhaXuWIalzGlS|NmOjqALAQNQWaGIemrrY|Warden/ranger
293|1292|BZ|South Walterfort|94418787|emFdENquFgIrDuUO|UujxlWfwZ|Barista
294|1293|IR|New Wandafort|31537882|DWiKalYoPQcQbf|sVZplQRrnywZdhcL|Horticulturist, commercial
295|1294|BT|Rossside|96717977|WtIaLIgGWAzWlXBEsGAHUHHOlw|YMublTLvGUhEhAWsrw|Regulatory affairs officer
296|1295|CZ|South Brad|97192688|RjdluzlzFGFIUHNRDzYyMyEnVuzeYBRQvEZosDfbyPlSwyXqK|KZYkPTe|Therapist, drama
297|1296|SI|East Christopher|78692962|lGnCvIsEvfEzqfLkiU|QijNopVac|Analytical chemist
298|1297|VC|Angelaburgh|94537775|HLAdaSigHMTHoqkJLkv|w|Financial trader
299|1298|KM|North Michaeltown|47326879|uIJTYlxklNzvFSUIgfsYAPRBgppdHvsgPIMGkzCXrmCL|ZbTOfckCEeGqmpVERN|Magazine features editor
300|1299|SN|Dawnbury|95311239|anMBKawTiOKHCGQSzFUyveIUnpmchyVIZXcoJgOZjtyIL|veSH|Herbalist
301|1300|DK|West Margaret|82189291|bSaNBcutBvxtGkhprhBAzUwQUhbMMSkMPCjBXUkjXBDbdhHQq|icEpOwnKZckkpRZjp|Environmental health practitioner
302|1301|TJ|North Tonyaberg|51786678|jRgBwFSJvjdNiQMBGfwsBfMyOpciElBeRMyDeqzuB|QCDqIUjffEtzZkoyohWM|Professor Emeritus
303|1302|BN|Michaelfurt|47274432|xQrkeuUlcVleNOQgBBYQnbgjdzJGjPmBtcGNMTDBsrUZyPfHz|GSqgqQChv|Geochemist
304|1303|KZ|West Staceyport|16356811|PMZOkGmvwsInaRuFlNCzzCzxVnYAZbXwuVC|b|Scientist, forensic
305|1304|IQ|North Donna|57187877|MTGXSqQrFU|QKdsrftrYmvFrt|Pilot, airline
306|1305|AL|Roseborough|94978458|DwBmnZKMVXGRzSCdoZBXYNAeUUDLvMycDxY|aMs|Geographical information systems officer
307|1306|CN|Port William|74298599|LHLZxoacSZbVxEYwIuSotBYnzh|KzfED|Loss adjuster, chartered
308|1307|NE|Lake Michaelberg|22772592|bRywqfxRJuqHJzQGDpHvGlc|yxSMhgaR|Designer, television/film set
309|1308|KE|East Hannahberg|29534675|o|uIs|Conservator, furniture
310|1309|AU|New Stephanieton|89526615|nZlWUMBqnREgguswpyWKltue|VIqfpkEFJrMCLP|Adult guidance worker
311|1310|MV|Lake Kelly|45398193|WNWxZfKYlKunvEXbKnrudn|xVAcOw|Engineer, maintenance (IT)
312|1311|KW|West Johnmouth|83283362|Pn|yzISSHILBoQnmQrQgpP|International aid/development worker
313|1312|PW|Greenetown|43246868|qRWEEzFqCXVPUgqnkDDPNmYXaBaVVXlVVabgHHXvTMDltYnr|ncahyKPNaeMTAAR|Press photographer
314|1313|MT|West Bryan|69125592|EsYfehMDpMSKTeI|kXx|Engineer, structural
315|1314|LB|Silvaland|11494153|SklqPDxYbLGHsQofCwRyAsHWypLxOvORGcyzJuFAdmGZV|HyyBsjjrmVpEuyMFVvl|Phytotherapist
316|1315|EC|East Anna|28555438|rCDIRFLoIWAM|VvGHft|Lecturer, further education
317|1316|LU|Lake Ashley|47595811|hUAMSYSz|JaxIxzar|Colour technologist
318|1317|PS|Ryanchester|59999945|jDRqyieqMQmZqdZDUvK|kZDHseeJPcfqQVYsri|Investment banker, corporate
319|1318|NZ|Roberthaven|37899721|VqCeHOfiyIZVatSHbOykkdLEec|PVywcBJGBYvJPLRNCc|Psychotherapist, child
320|1319|TM|Lopezhaven|46712879|lA|CdjTzcJoNgFaaP|Podiatrist
321|1320|FR|Port Williamland|41649914|PjyOwtMLnWCenaosNMEolsJpVRrK|aOtshXJTLNy|Energy manager
322|1321|UY|East Christopherbury|37394478|NOkvxeQznswjnMsbEwNcYqrqPEnFSeAsD|NzSlwZDPJI|Training and development officer
323|1322|PA|Elizabethhaven|51915565|AZZdGTvXNwkCSELIGJTk|APqrIpALWvQZTMh|Forensic scientist
324|1323|PG|New Katelyn|71879185|JpYbwHqQJsfvqTKBElSwRMEQLwDItrYHhSgszDIBMs|yIyGGFRbwq|Financial trader
325|1324|AF|Luceromouth|52251721|OrzVdDjshKVLwnsQjpuGeDTEgiwvyEruZCprRvp|dOlJrTgYCrmxY|Buyer, retail
326|1325|ZW|Chantown|89679194|oyfrUBkAXTZolglNSpuYOFMSV|H|Buyer, retail
327|1326|IQ|Lake William|91925635|ycUUFgHsLzsLcTCzGFXZpmYirmMx|iTJKlrRBrH|Barista
328|1327|GR|South Davidfurt|67287921|XsGQFiShvVdXxaBcdGzvDoxSBYlzOroSH|XTeXgtMopQCMBq|Engineer, broadcasting (operations)
329|1328|KR|Adamston|94473198|hiYvBZmQObSk|QCXnOjbswlhkhpsrQN|Careers information officer
330|1329|VC|South Vanessa|38952481|kbvCORTOoROHhuUJuKljgUmxOIyidc|cAujxJzBBzIjFTWUsLU|Animator
331|1330|PE|New Lindseybury|59182626|FozwhxBcUFdXJLZKOzJUKZdHCaHhnNkjzsfYwoZWsvz|pEFPNdfvQgENpNI|Archivist
332|1331|TO|West Alison|69134455|VmpNHOoGGLMhaHFNePbhZuKusKBbBuQ|L|Energy manager
333|1332|PH|Mooreberg|78498848|JZwFvcDgfZLfxsgiAzZiyouoYm|ObAnnjQKNqXoJYK|Agricultural consultant
334|1333|KG|Lake Jessica|49434872|DKcRlx|HqwbOqje|Fisheries officer
335|1334|NI|Mcfarlandberg|72295536|CeWkiUcDeNVaDRsLCWtfOYex|sEYMkCUmTjBGe|Graphic designer
336|1335|MK|Smithberg|64396197|yoAhUTKOvu|ersFgKpxhaqIIgEZYWb|Theme park manager
337|1336|LR|East Aliciaton|76445966|TKbPxYXGgmJyLSrYijqshpsiPjAFMgzGdRueklhwKyXli|AxSojgSaHWfA|Operational investment banker
338|1337|MT|Kellyburgh|31285349|PjqdJoGUjQErKcWDxDQjPiDrZNFaxPigzko|NgwPxbCcppotbQEfdCEx|Psychiatric nurse
339|1338|LR|West Neilview|72175874|ZPJiGqfBIRJdWDkLOFeMkcHrParShKlCtZqDSeqjIEaMOcfHcl|iFCvPvlFmgwJlxoQGIV|Teacher, adult education
340|1339|SN|Latoyaport|91892169|MMGkDwJrIJaBJQujQG|GQWPCtqRZotnvGnzNS|Industrial/product designer
341|1340|LV|Jasonstad|67853454|Pv|TiCBev|Fast food restaurant manager
342|1341|DM|Ryanmouth|56461313|ZoLYeITCzYQwdUyXWtUUrzDn|PKcWSSUHPDksazJQEGg|Radiographer, diagnostic
343|1342|BR|West Lisamouth|65121785|NbIZETyraRIhmUrfCBMTEPEMGk|Xrxz|Chartered loss adjuster
344|1343|TH|Barneschester|89698133|TJBWUOwEDAoTDfPrRsyfjwPHyfDxbZIxlYI|ONaU|Scientist, research (life sciences)
345|1344|SB|New Loriside|91546824|rvCeEeeZinIoRyPfpoiDyAttj|gScLxEkTAmzLKK|Associate Professor
346|1345|LU|Port Claireberg|68159268|ygDZcuzOvbZwtjSzXHaTbNCaNtTsdbXWNNzEGRgZk|LOqkEof|Land/geomatics surveyor
347|1346|TZ|West Abigail|69553261|HvnhYmyCnSZDJgMfHNoGRleCCyktxnFiLGuQ|w|Midwife
348|1347|JM|North Jamesfurt|16724427|gDMJKmrkXNeglNoYZIWLzzNGOylpI|VlvYrc|Systems developer
349|1348|IQ|Port Holly|62146192|bSiZYuuVZbttYNkgPfZHJvvXEjGsla|LQK|Multimedia specialist
350|1349|LI|East Maria|48167613|qehcHcNDsENSOQBNMKAdO|zQbAMeBEkGZjQOvp|Outdoor activities/education manager
351|1350|KI|Port Priscilla|31283224|LwWEpLvW|IF|Risk analyst
352|1351|US|Hillton|85628447|NWqqwVNP|v|Volunteer coordinator
353|1352|TG|South Coryborough|32696241|GtdPENNSPzIrqjIDZEWnAHlCqbaG|kRZruftiOgn|Forest/woodland manager
354|1353|AU|Port Jamestown|41155269|MzOEUTyXpupMBhxtZ|XShoULawXrvqOOJsbth|Health physicist
355|1354|NP|Douglasfort|39588347|rThxEPGEvTXumwIZeHtKEYr|pLZDpErF|Corporate treasurer
356|1355|JO|Port Robertfort|74367587|oplQNYBeLvgxeibYpfyKPXjwoyQXdbwisJCDQHzCOyVe|VWDFPsAn|Mudlogger
357|1356|JO|Ramirezhaven|76857879|saihNnWYFRYBVoherJVo|syeNVMDjAFYCmQE|Chartered loss adjuster
358|1357|NI|Bryanttown|69221425|DsnLhuUUmsfKaM|bDMhlFOUbefMFEfq|Dispensing optician
359|1358|DE|Port Christopherside|46923954|jGvaEBWeooeUOXNKCpiUtGVonMCOQoUnzuhEXCoknsQTAsfM|vElfUmSbGpFCMHmf|Translator
360|1359|SD|East Claudiafurt|56591759|zalaSHtbNBMcMUVosfzSTYDCqckMshagqpeeeV|nQkruKYEGYFWkdckomq|Chartered public finance accountant
361|1360|FJ|Wendyberg|11867644|seISrAaVIdrNCtWiYVuZXPEABMECUYkjakCQTauUTtEgexu|ZZhmMAHYGGb|Surveyor, rural practice
362|1361|AE|Jonesberg|12238885|EhSOjLbnvctknWkzDgOGhfQypoVFbSGEVGqsFHhPcTKTYnc|rmhIyhyakLjBzSnjCgt|Building surveyor
363|1362|FI|Johnsonchester|46725527|SoKCFBxeHFkCXVrqqWdtypnDdAjRODVMqWQQ|KoSRKTiXVEJESvivsRov|Education officer, environmental
364|1363|PA|Thomasborough|64622722|PUtDXxRDeUSBfkzjI|cNbsYDYYWKuZHIc|Fisheries officer
365|1364|NO|Kristenchester|56627894|ITJgwIJgQOTQKxhPVYTrAMkzvVWezIkdUC|ysIYVRXLnAT|Accountant, chartered certified
366|1365|TT|Gardnermouth|24775632|NYYHrhHJOa|so|Futures trader
367|1366|CD|Tarahaven|33715275|CyWjBAHjXPsXbJfqhmCNNXYSEftxfbCckzKgmEsapvSVCaZ|FkLChvpqCXUvQIMb|Associate Professor
368|1367|MW|New Sandra|32132886|lRaugaGszBVZbviKRrJYyTfULhMxH|ZyThidenJq|Pathologist
369|1368|MC|New Coryton|43287588|PsqsQtyxTfXZhywpKYcHGeOUtyGUYElSN|bTeS|Proofreader
370|1369|MU|Rickyland|39325194|QJyouRbYFdTzWKJCadloWRrxw|hbaOxb|IT sales professional
371|1370|NE|South Cathyville|95889384|cfpQRIrYY|kPcpTftEMnSiRBN|Information systems manager
372|1371|SD|Velasquezberg|33427832|PXmHpgcrTOeLUnAeXFrsArAJ|hUHXmwSOBEjjiMXD|Counsellor
373|1372|GN|South Cheryl|95264373|PpGISsfEFAJYGEVjIdUvcRQVrC|FkCvUTpPyctHUngkJF|Surveyor, hydrographic
374|1373|BY|Cisnerosfort|51272777|FAZFoEPCFqPlFoDFOEAUIEoKMBHsvCEmpsPsITfScwABkOhn|zU|Customer service manager
375|1374|AD|South Kathyberg|33775781|YenuewytU|obkZLxyJdY|Occupational hygienist
376|1375|VA|Romeroport|92972886|Z|gFyaJjJxuGMdUzt|Environmental manager
377|1376|GA|Lake Christopher|89332972|NLsenpyEZWNYyURoEDhSqwM|gqkTPAThzRgKTymI|Dancer
378|1377|FR|Laceyville|98585241|mGRENwtRgbs|tdsORJklebO|Child psychotherapist
379|1378|AT|Ericksonmouth|55242348|gvAjTfIKXWUIUPhqeldZaeNgUiVRKtfRcrQJICxwNKBacfp|hfiyheQqikJZSZc|Database administrator
380|1379|BO|Lucasview|62211177|RwYxWkPZE|aYJmQoYeuBjNPvRiH|Adult guidance worker
381|1380|EG|West Jamieborough|41179257|apmyJKPahttsHNM|NyVXTPXF|Administrator, education
382|1381|NZ|East Michele|67599759|XnxKredxdPHoeSxmJwUlJAhFOfFx|FSxGHxobWdGeQTlz|Quarry manager
383|1382|VE|Douglasfurt|12174986|IbXahWcakFPYmWuiAnXKeQKWTHlPNFAp|ZJ|Systems developer
384|1383|PW|Finleyton|43355196|pPDShGNTTmegiQnWiDCxActbXfdvoEQDicNis|RwgefZzposzbfVMyZwJ|Emergency planning/management officer
385|1384|US|Lake Kellyhaven|29671121|fahTLkLgWBUnyhbgcBwCdeCMdZDtLWrTzLLePoxooS|zQhzNgaVIPxjGuDUXD|Medical technical officer
386|1385|SZ|Alvaradoport|62475547|zQhOvlHilpnjAvfNBDQSkHcZKyAa|AizvoKVfZzWqB|Print production planner
387|1386|NI|Thompsonland|82742342|rRTuctckjOdXTCsxJxyhpYjPWh|TvDuhMpgvswizDJMJD|Financial manager
388|1387|CL|Yodershire|62994714|cPudoJWRlDRoUcWSvsHwNHQmcvArnHALMu|JWgNTAqp|Financial trader
389|1388|UA|Allenburgh|19325427|vnettyZdlgpwMRANwoGYMCMpanBVwIxK|WcSCeqYRiSmJhtKiKz|Nurse, children's
390|1389|AT|Jonesfort|14533898|DXoMAuqstAvhBGdastCiveNTBkmrXuZ|tMCXBRHuwIRAjODTk|Education administrator
391|1390|DK|Port Christineton|85984959|OkCBCywVwQOlRYhuZOI|HMYkQXL|Editor, magazine features
392|1391|NE|Blackberg|24752844|ttyXlHZrRxIkfDrGDemPtzD|ysRzYj|Radio producer
393|1392|KZ|Port Rachel|35672286|ZWdyMFYbpsoEyBOTpFZLCVHZVEietfQTeWK|LhHp|Physicist, medical
394|1393|BB|Angelashire|33224882|IfTRYDahLzPGGUmPpH|RxmMgogQ|Youth worker
395|1394|CA|Port Chelsea|53868348|NieHFg|smWBSoMqGeuZwMv|Print production planner
396|1395|QA|Sarahhaven|83728467|ZpGlZIdchPNSPKmsTCWHrITxXlBPbxXiqnu|lSHdO|Civil engineer, contracting
397|1396|JM|North Royburgh|29956576|sHYfbJVxbJZZcDFf|upryLjvhUodYoahDNiGA|Printmaker
398|1397|HR|South Craigstad|46583977|hJkvmDgRpnnjWl|syDgUcJWv|Therapist, occupational
399|1398|BY|Davisview|94562911|irAVT|qePTFRAsqbVJsevi|Herbalist
400|1399|BA|West Glen|35311921|aRFLLZGrusQDTOMkDDIDPBeTJDUAcHYwvlPYjXal|mfeqJVx|Firefighter
401|1400|BO|Hammondmouth|48437915|ZgAUsWKwfBCMLXmBelpSHPilxrOYdQWVbQLZUFber|ejxTMcoFyEsMZAu|Optometrist
402|1401|SN|Westland|65869521|AjVBHqcsOAzlPuFbrjeOohNkMQdlHnbFWHi|qkTSGbTSaWZzUPR|Seismic interpreter
403|1402|BN|West Nathan|16313676|VJeJBEDoRKRzeoJPAvWcSclNjCyvVYCpAc|GVJk|Surveyor, building control
404|1403|YE|Hernandezfurt|94859653|tlNUEvbmaavpQHYTOEiwAMD|ncqKZKUqrzl|Fish farm manager
405|1404|SD|Bartonborough|69229989|bgkBqDpsosvRoC|zpFWevamETMlokAucSX|Administrator, education
406|1405|KW|North Lindsay|37969112|PhoRPiSlChlnHnxFfjyzmziLlwMlmThKpCyYsUoGLrNocmgWnA|tKnaB|Scientist, physiological
407|1406|CO|Coreyburgh|59799948|mKUVETjs|dCDoDhJYWhZmb|Engineer, aeronautical
408|1407|TG|Lake Elijah|52397761|qUDZeBGnRHklxtkoqCeSqdteIs|blgnLCZAY|Brewing technologist
409|1408|UY|South Johnmouth|82741685|vKHUCbSjdzvWdUeyLDcDNNTMMXcmVbYkmRMrzONSwun|qsOArvTcaeJRYpEdp|Scientist, product/process development
410|1409|LT|Michaelville|61258463|IHwiyhxlzeIurmuLNIychbrGHVeyRfoOPDxnKjgNI|DYxq|Research scientist (maths)
411|1410|VE|Port Emilyfort|26838837|fagnlWHfVmrj|HaqRAmOKnB|Petroleum engineer
412|1411|KZ|Port Seanberg|78388584|DWsDFAOWkL|ILcurLQSYihayEiWgQS|Television floor manager
413|1412|BW|New Nancy|53544631|OXVWyu|kBMefxJryc|Engineer, water
414|1413|DJ|South Kenneth|18376983|YDhHxvrnUK|xiFWtuenPTZnKUPjuyla|Paramedic
415|1414|LU|Lake Christineberg|15462963|gfMqhtehuOInVhYgjSSuSWCumiJmTZnjyxYVGrfHeywBlRA|qwHGabj|Designer, industrial/product
416|1415|BJ|South Leslieland|51849931|kplHdBbc|WAbxPdQWwSmPJjeYdNB|Chief of Staff
417|1416|HN|Hillhaven|26658577|MNvxkVTPaLzTnrTaUMDZVWaYvbQkJpJ|AIOOhHW|Fish farm manager
418|1417|DE|East Sandra|83669269|M|ytbWrBWsiLpNeeKGnFmV|Journalist, magazine
419|1418|MY|North Derrick|59139625|YxATHgBrooyMFprhCYKZxFcQq|kzGb|Speech and language therapist
420|1419|ZA|Hawkinschester|69272192|qeALPHVOwZGfaAFNd|fICSl|Designer, jewellery
421|1420|HT|West Ericmouth|59477452|lLpcDniKWjhkGOccnplJUJtMGTZZNyUybGgOQr|AyYjFdBVzFkyDHrHIogl|Product designer
422|1421|SD|Campbellbury|36161496|xUZzyzrg|YOfQWjD|Curator
423|1422|LS|South Adam|44836491|cErmXUhnPuIyUkigHyVaFCBpDOxBKaCiRazzTmswhOp|umRJr|Commercial art gallery manager
424|1423|ID|North Samanthaside|99186915|syKlO|GSLvSCuYzxrqjJJNOh|Commercial horticulturist
425|1424|ER|Austinfort|52571326|PxPMxGsVSQssRzbjrnlmTeCLzRZplcGtFPlyYHyB|OlZEWtsYQEZt|Chiropractor
426|1425|KE|West Ashleyside|47194638|QWVBZUUAmrTh|iiKvDCgEW|Industrial buyer
427|1426|DM|Port Kimberly|12991247|CaUopHMbvOdsPnsuSGJuVpwGdqW|hGptPPdvcbyJr|Ecologist
428|1427|HN|Riveraside|24352298|vyhqWVmdvqEUrkICzeAygeODIpIFJhfqScjNWBemhk|ekbOg|Early years teacher
429|1428|PW|Robertberg|72513218|zwLahLdesIL|pThyEEdH|Engineer, maintenance (IT)
430|1429|IQ|North Julie|71636163|JVkhnVhMRITNoLNzBAoJnEENczsyrnaNoHrSawVInlwb|kVhpEKQCHJRQA|Health and safety inspector
431|1430|UA|Carrburgh|54178632|H|pmJXV|Theatre director
432|1431|KN|Belindabury|62847594|IuKmlnLgzaQdepLTylcVKqaLftzPZa|jpvgitYMeP|Designer, fashion/clothing
433|1432|KI|Lake Jason|42882273|ByZpiKOVzZd|LcZFimdCgAVfbYciyng|Community pharmacist
434|1433|BD|South Christopher|67847422|pMNBogwfCkwRigpEsMPSVAtNkqxSUEVvkX|xzUFyfZxWiMoqIT|Accountant, chartered certified
435|1434|AZ|Ortizhaven|95899666|hormbdrZaUCNjEVGHLspnrOicuKaoCjqTZrBEuhKZZuTBo|FyHKrPIN|Osteopath
436|1435|SI|Riveraport|17584671|pWumVIhzrqKnjRlodPrKdTcZvaWacwCmobKfqgIWoFUFrAv|oGkNQjtBwe|Paediatric nurse
437|1436|MC|Nicholastown|92176685|wSWcpdUGGjCQUyqaHVcUmILWE|lyzhwlDnilSvJ|Further education lecturer
438|1437|GM|Davidshire|69721778|uaywIUtDOCVUJAqNEFnNeAZMWMgux|uEKfREmNXMdAoFUf|TEFL teacher
439|1438|ES|Lake Michaelburgh|45658957|SRIcAPXMhGUiEHgcOkIj|spIOuuPAmPot|Broadcast journalist
440|1439|LR|New Michaelport|58317169|gk|RHdEqZoEYCRrpywyJ|Chartered certified accountant
441|1440|CF|North Cynthia|82431767|PdTkd|ejAExRCKi|Pathologist
442|1441|RS|Millsshire|23992728|eGDmvbNBnKeTamZaEfayigKPdgBYTfHBugBZRxkfWAeiIFCB|HCWJgpaeuXMhfXn|Nutritional therapist
443|1442|GN|Sandramouth|51599896|sZhHmPOlPohIAglrVm|ooUTGAgEixj|Product designer
444|1443|YE|New Anthonyburgh|98919839|gKJxUgtLhZZRVsnJMxbNNMpRgkaXLTU|Y|Industrial/product designer
445|1444|TM|West Alejandroton|53525844|zwxzYPNADYJjnHICIjqqchTAtoOUpzz|DdharibqOgGOYQQXw|Engineer, civil (contracting)
446|1445|PL|Sandrastad|71552895|sOa|fcLmcsEaLw|Banker
447|1446|LA|New Kathryn|32479818|akLvhWb|jjzAJFDyZg|Bookseller
448|1447|SV|West Kaitlynport|25374961|YwfgvfOJLYwUstEByzjnTILihtpKUe|NvkWq|Chief Operating Officer
449|1448|UG|Lake Bailey|45716637|NXrZFAxEKIxasTSsdaWspcQVBlLWfHmphufNirc|OCoJlJFrvBsibtHzXezP|Biomedical engineer
450|1449|SL|Erikport|83494547|LevgykWwIfydZBfZGiKWMznIwnmjJJuGSYchVLDVwXibvFnzTP|OdBOriu|Senior tax professional/tax inspector
451|1450|MM|Derekbury|87492576|IpjOPLysQaWvVzTyhFbZBCQiuHrV|Ce|Newspaper journalist
452|1451|WS|Rachaelborough|21922484|KAUVqRHCApEYhhgzfVlLfjkOwEMyRfjHmzbHIwgv|znNE|Programmer, systems
453|1452|NZ|Clarkland|75477227|PYnReVbsvQdDkVAMQPTqVFiXiN|iC|Barista
454|1453|AR|Port Robertmouth|31498838|lCTsOchqeNFiuLNsVbqmOUYZWXfgAVdOUPEYMRc|MeCWB|Physiotherapist
455|1454|AD|Hillstad|74137538|RWDZamiACGfcSCCiBVbMguJw|EAPQERH|Radiation protection practitioner
456|1455|WS|New Jennifer|69421245|zFPoTJFWTITsGJcWZatxW|WCZFB|Adult guidance worker
457|1456|SK|Davidmouth|46875556|MzEyptVkxJxwOmU|lnPjPudA|Diagnostic radiographer
458|1457|PE|Rodriguezview|13369767|oMPZMJtbphxbUBkGywFHdzKFDuzlwe|CBhlkNvCbytU|Engineer, chemical
459|1458|VC|Lake Carrieville|27374671|QfxgDQCTNtWVGHJMsCuPTGmhlJGemBmeBmTmqkoMmDnUBJqy|iCQUkslcDJAeHhvea|Actuary
460|1459|AZ|Aaronmouth|26492161|tvojICe|AIyFlNJdRF|Mental health nurse
461|1460|SZ|Port Cheryl|19847162|TxtMklNTGpaRnptBtDUADOMeFaKIdyzVDWTIhEk|XGchBEEQSPC|Warehouse manager
462|1461|AE|Johnstad|48514217|rktjuYkmlrngRnMOWYXLY|QFilexySDLDlgn|Corporate investment banker
463|1462|TG|Baileyhaven|42413247|dBIoCEzyIoyrxOxqtddlDBqVqsyXLtmQyQzPsqLAD|LWuW|Scientist, research (medical)
464|1463|GA|Joycemouth|95685463|SuyVoHkV|otwWBBL|Cartographer
465|1464|MU|Lake Nathanshire|35632827|pEbgaOnmSpIjoKeZHOnazrkiojOEEAyAHdbCDgxWMW|VHtie|Teacher, music
466|1465|VU|Port Karen|76996491|xnMNv|wEqeOYBzVAW|Surveyor, land/geomatics
467|1466|UZ|Mccoymouth|62786452|ucbat|stdOKvHqbQSNakWl|Armed forces training and education officer
468|1467|RU|Warrenfurt|61938293|pZkSOYO|fToKgxKsiSg|Emergency planning/management officer
469|1468|NA|Maciasmouth|63968614|YeCwBusKQrhvZQaYP|OAzCzx|Environmental manager
470|1469|GD|New Alexandra|76536762|UySQP|LvIJCouWWAaUAiYrbiz|Scientist, research (physical sciences)
471|1470|CO|Jasonland|82319963|VimDdtOXecKpHRIofBT|ligfVGpVfFGSaZVt|Proofreader
472|1471|MR|Johnsonshire|55273749|aAlRC|tgoipLr|Medical illustrator
473|1472|PK|Lake Robert|82773984|fmzbOljzPDKZU|sEcRin|Teacher, secondary school
474|1473|GQ|Michaelhaven|36363248|PSiDIB|DLtNIDBvQWUcPEEh|Armed forces logistics/support/administrative officer
475|1474|GD|Lake Branditon|33339597|sPtCLnkOuDZnWIwsOnmjX|mpBsMrXgSgmLkFOeh|Barrister's clerk
476|1475|CN|East Richard|16944861|xHbaSQaeFhhetlkoGLIHbuOXqezkETlBpqrDMqcyx|rMnBeYzjjsjrwWMqyo|Teacher, music
477|1476|AE|Millerhaven|58544332|hpBVIanraHoUdByrkVUdPgeEVwIkrXVqatYUucmUhNmZph|MPnuLkWCMgMjIMLWpJ|Broadcast presenter
478|1477|IQ|Stewartburgh|51649349|qwGHsIAmoSqzCdbJsFzgEKjNiLbZgzlpGRUktdQpZ|rxaNpWXAyCphk|Surgeon
479|1478|PA|West Jenniferbury|63869291|FiypkcukaZlyJhKnpXjooJRbzYRnBB|eCSSVhyjpNeoUYKcVhAl|Engineer, land
480|1479|SG|Yolandastad|94928966|jyd|sVnKqeEqpetJJjqObXZ|Restaurant manager
481|1480|BE|South Trevor|76538464|DArJijSQUsRNjKYUvtgwyuhQCFLRzARTZLSPyc|fKaGWNWYMYDnsUDrS|Diagnostic radiographer
482|1481|SE|East Christopherfurt|31656819|mrEGULQGjVLBFMFAVDAWejYnCzgOM|FpMWzTzGWqnMMNLwVFiQ|Occupational therapist
483|1482|HT|North Jeremystad|68532654|GvMBWEcerIUmNHM|hyj|Investment banker, corporate
484|1483|US|Lauraton|89177897|OQoQrmZNRQFPHIxbwQLkRVSZOhoMwyXMQVGggsiBS|wMtwzmTuyUENOnS|Environmental consultant
485|1484|SZ|North Tracy|17439535|Ryytlu|jiU|Medical secretary
486|1485|NE|Jenniferside|14284286|WsLXhWGWBszuWAmMPLFxhTBfVOhdvjoyQpRNAsABwlFBHTWPA|asUkf|Database administrator
487|1486|QA|West Leahmouth|98544564|MHZVbYIqDTrhoDBBBsAxxiEVYZuGdTgpEKwUZpV|o|International aid/development worker
488|1487|NA|Irwinmouth|43782328|KOkylPyUiiIctCoDAwYVVIPgooLBE|ZYU|Clinical cytogeneticist
489|1488|NE|Smithhaven|36249456|qnJDHLyQjyYfcglUmkvYqRSucmmNa|xdod|Journalist, broadcasting
490|1489|ID|Port Christine|27972369|xIdDNFNXmcKblwpeCbXrJ|mfEKpDMicXDAOlQnms|Bonds trader
491|1490|DO|East Michael|91631946|OArdIyFUzwtwLyBGDumjKTLXZDmkTrdAZlbSzcxFkS|xoRTVvhhrxneukDu|Investment banker, operational
492|1491|AG|Deanberg|75114531|hkffeObThPCLHWguvmdMoxDkIjWytVMibTHxpLoia|EyOmH|Production manager
493|1492|GE|Lake Hollyborough|89799836|YiAxtePvPUqeQbUvgfnehcXfRANzNVmvMVHHsKOjoFRzBkRWRR|uZfVcqbiE|Financial planner
494|1493|IR|New Andrea|55794859|WZggkridscCCzuJwQeItA|fN|Surveyor, planning and development
495|1494|BA|Lake Lori|81553268|LXweRZMJMwkHAfyYtQRA|fpaUtUKsHuanRYSYwQ|Medical secretary
496|1495|MG|Lake Kathryn|79588374|zMmXUfbaUHYNIEUPrBHSAVrhswbsNidPymqpAhrYeQFdcxIL|OVyuylatJKffflkVd|Contractor
497|1496|DJ|Smithview|26536444|MUzuEGEqijRPODDRGYUJbcLMFYuNgDzkDxAuzx|zeCwaGHpjstyJ|Accommodation manager
498|1497|IT|Port Gina|73655534|eQSOGyRWVEbt|Zoa|Fast food restaurant manager
499|1498|DE|West Robert|53693926|sEJlyoDmQNiDXbSaYWqsYYWgzcwbiqInbGW|EpazsAlEFxDmkLt|Translator